[{"OBJECT_NAME":"STARLINK-4693","OBJECT_ID":"2022-104T","EPOCH":"2025-11-01T03:43:21.015840","MEAN_MOTION":15.08832677,"ECCENTRICITY":0.00015241,"INCLINATION":53.2158,"RA_OF_ASC_NODE":100.9105,"ARG_OF_PERICENTER":86.1822,"MEAN_ANOMALY":273.9345,"EPHEMERIS_TYPE":0,"CLASSIFICATION_TYPE":"U","NORAD_CAT_ID":53605,"ELEMENT_SET_NO":999,"REV_AT_EPOCH":17621,"BSTAR":0.00011776158,"MEAN_MOTION_DOT":1.586e-5,"MEAN_MOTION_DDOT":0},{"OBJECT_NAME":"STARLINK-4590","OBJECT_ID":"2022-104U","EPOCH":"2025-10-31T20:30:11.980512","MEAN_MOTION":15.08834644,"ECCENTRICITY":0.00014086,"INCLINATION":53.2182,"RA_OF_ASC_NODE":92.5962,"ARG_OF_PERICENTER":88.1792,"MEAN_ANOMALY":271.9362,"EPHEMERIS_TYPE":0,"CLASSIFICATION_TYPE":"U","NORAD_CAT_ID":53606,"ELEMENT_SET_NO":999,"REV_AT_EPOCH":17618,"BSTAR":7.791578e-6,"MEAN_MOTION_DOT":-1.64e-6,"MEAN_MOTION_DDOT":0},{"OBJECT_NAME":"STARLINK-4591","OBJECT_ID":"2022-104V","EPOCH":"2025-11-01T02:43:06.713760","MEAN_MOTION":15.08835962,"ECCENTRICITY":0.00013234,"INCLINATION":53.2166,"RA_OF_ASC_NODE":96.3729,"ARG_OF_PERICENTER":89.2065,"MEAN_ANOMALY":270.9079,"EPHEMERIS_TYPE":0,"CLASSIFICATION_TYPE":"U","NORAD_CAT_ID":53607,"ELEMENT_SET_NO":999,"REV_AT_EPOCH":17627,"BSTAR":4.0902816e-5,"MEAN_MOTION_DOT":3.63e-6,"MEAN_MOTION_DDOT":0},{"OBJECT_NAME":"STARLINK-4647","OBJECT_ID":"2022-104W","EPOCH":"2025-11-01T03:02:20.984928","MEAN_MOTION":15.08848152,"ECCENTRICITY":0.00013937,"INCLINATION":53.2171,"RA_OF_ASC_NODE":91.4508,"ARG_OF_PERICENTER":107.6388,"MEAN_ANOMALY":252.4757,"EPHEMERIS_TYPE":0,"CLASSIFICATION_TYPE":"U","NORAD_CAT_ID":53608,"ELEMENT_SET_NO":999,"REV_AT_EPOCH":17622,"BSTAR":0.000125261,"MEAN_MOTION_DOT":1.707e-5,"MEAN_MOTION_DDOT":0},{"OBJECT_NAME":"STARLINK-4660","OBJECT_ID":"2022-104X","EPOCH":"2025-11-01T03:30:44.957088","MEAN_MOTION":15.0883715,"ECCENTRICITY":0.00013336,"INCLINATION":53.2149,"RA_OF_ASC_NODE":95.8738,"ARG_OF_PERICENTER":97.5085,"MEAN_ANOMALY":262.6059,"EPHEMERIS_TYPE":0,"CLASSIFICATION_TYPE":"U","NORAD_CAT_ID":53609,"ELEMENT_SET_NO":999,"REV_AT_EPOCH":17628,"BSTAR":0.00039986444,"MEAN_MOTION_DOT":6.081e-5,"MEAN_MOTION_DDOT":0},{"OBJECT_NAME":"STARLINK-4610","OBJECT_ID":"2022-104Y","EPOCH":"2025-11-01T02:53:07.065888","MEAN_MOTION":15.08835783,"ECCENTRICITY":0.00014026,"INCLINATION":53.215,"RA_OF_ASC_NODE":91.4132,"ARG_OF_PERICENTER":88.0776,"MEAN_ANOMALY":272.0377,"EPHEMERIS_TYPE":0,"CLASSIFICATION_TYPE":"U","NORAD_CAT_ID":53610,"ELEMENT_SET_NO":999,"REV_AT_EPOCH":17622,"BSTAR":2.7664551e-5,"MEAN_MOTION_DOT":1.52e-6,"MEAN_MOTION_DDOT":0},{"OBJECT_NAME":"STARLINK-4658","OBJECT_ID":"2022-104AA","EPOCH":"2025-11-01T02:46:25.950432","MEAN_MOTION":15.08835598,"ECCENTRICITY":0.00012864,"INCLINATION":53.2163,"RA_OF_ASC_NODE":91.3836,"ARG_OF_PERICENTER":89.1191,"MEAN_ANOMALY":270.9949,"EPHEMERIS_TYPE":0,"CLASSIFICATION_TYPE":"U","NORAD_CAT_ID":53612,"ELEMENT_SET_NO":999,"REV_AT_EPOCH":17622,"BSTAR":-9.553862e-6,"MEAN_MOTION_DOT":-4.4e-6,"MEAN_MOTION_DDOT":0},{"OBJECT_NAME":"STARLINK-4655","OBJECT_ID":"2022-104AB","EPOCH":"2025-11-01T02:57:02.682144","MEAN_MOTION":15.08832803,"ECCENTRICITY":0.00013612,"INCLINATION":53.2178,"RA_OF_ASC_NODE":91.4274,"ARG_OF_PERICENTER":85.6249,"MEAN_ANOMALY":274.4899,"EPHEMERIS_TYPE":0,"CLASSIFICATION_TYPE":"U","NORAD_CAT_ID":53613,"ELEMENT_SET_NO":999,"REV_AT_EPOCH":17622,"BSTAR":3.0975627e-5,"MEAN_MOTION_DOT":2.05e-6,"MEAN_MOTION_DDOT":0},{"OBJECT_NAME":"STARLINK-4605","OBJECT_ID":"2022-104AE","EPOCH":"2025-11-01T15:25:33.004704","MEAN_MOTION":15.08812996,"ECCENTRICITY":0.00016572,"INCLINATION":53.2175,"RA_OF_ASC_NODE":78.819,"ARG_OF_PERICENTER":85.9582,"MEAN_ANOMALY":274.1599,"EPHEMERIS_TYPE":0,"CLASSIFICATION_TYPE":"U","NORAD_CAT_ID":53616,"ELEMENT_SET_NO":999,"REV_AT_EPOCH":17655,"BSTAR":-0.00016430682,"MEAN_MOTION_DOT":-2.9e-5,"MEAN_MOTION_DDOT":0},{"OBJECT_NAME":"STARLINK-4609","OBJECT_ID":"2022-104AH","EPOCH":"2025-10-31T20:14:16.463904","MEAN_MOTION":15.08839142,"ECCENTRICITY":0.0001335,"INCLINATION":53.2163,"RA_OF_ASC_NODE":92.5277,"ARG_OF_PERICENTER":88.8248,"MEAN_ANOMALY":271.2897,"EPHEMERIS_TYPE":0,"CLASSIFICATION_TYPE":"U","NORAD_CAT_ID":53619,"ELEMENT_SET_NO":999,"REV_AT_EPOCH":17618,"BSTAR":7.5193789e-5,"MEAN_MOTION_DOT":9.09e-6,"MEAN_MOTION_DDOT":0},{"OBJECT_NAME":"STARLINK-4615","OBJECT_ID":"2022-104AJ","EPOCH":"2025-10-31T19:53:02.870016","MEAN_MOTION":15.08839451,"ECCENTRICITY":0.0001343,"INCLINATION":53.2172,"RA_OF_ASC_NODE":92.4362,"ARG_OF_PERICENTER":90.8379,"MEAN_ANOMALY":269.2767,"EPHEMERIS_TYPE":0,"CLASSIFICATION_TYPE":"U","NORAD_CAT_ID":53620,"ELEMENT_SET_NO":999,"REV_AT_EPOCH":17629,"BSTAR":-2.50667e-6,"MEAN_MOTION_DOT":-3.28e-6,"MEAN_MOTION_DDOT":0},{"OBJECT_NAME":"STARLINK-4608","OBJECT_ID":"2022-104AK","EPOCH":"2025-11-01T02:30:30.547008","MEAN_MOTION":15.08835508,"ECCENTRICITY":0.00014545,"INCLINATION":53.216,"RA_OF_ASC_NODE":91.3149,"ARG_OF_PERICENTER":89.1218,"MEAN_ANOMALY":270.9941,"EPHEMERIS_TYPE":0,"CLASSIFICATION_TYPE":"U","NORAD_CAT_ID":53621,"ELEMENT_SET_NO":999,"REV_AT_EPOCH":17622,"BSTAR":2.5999054e-5,"MEAN_MOTION_DOT":1.26e-6,"MEAN_MOTION_DDOT":0},{"OBJECT_NAME":"STARLINK-4568","OBJECT_ID":"2022-104AL","EPOCH":"2025-10-31T17:45:49.881024","MEAN_MOTION":15.08838815,"ECCENTRICITY":0.00013759,"INCLINATION":53.2155,"RA_OF_ASC_NODE":92.6019,"ARG_OF_PERICENTER":87.197,"MEAN_ANOMALY":272.918,"EPHEMERIS_TYPE":0,"CLASSIFICATION_TYPE":"U","NORAD_CAT_ID":53622,"ELEMENT_SET_NO":999,"REV_AT_EPOCH":17628,"BSTAR":2.8815787e-5,"MEAN_MOTION_DOT":1.71e-6,"MEAN_MOTION_DDOT":0},{"OBJECT_NAME":"STARLINK-4573","OBJECT_ID":"2022-104AM","EPOCH":"2025-10-31T18:22:58.285632","MEAN_MOTION":15.08836888,"ECCENTRICITY":0.00012389,"INCLINATION":53.2158,"RA_OF_ASC_NODE":92.756,"ARG_OF_PERICENTER":91.208,"MEAN_ANOMALY":268.9054,"EPHEMERIS_TYPE":0,"CLASSIFICATION_TYPE":"U","NORAD_CAT_ID":53623,"ELEMENT_SET_NO":999,"REV_AT_EPOCH":17628,"BSTAR":2.5601396e-5,"MEAN_MOTION_DOT":1.2e-6,"MEAN_MOTION_DDOT":0},{"OBJECT_NAME":"STARLINK-4596","OBJECT_ID":"2022-104AN","EPOCH":"2025-10-31T19:42:26.196192","MEAN_MOTION":15.08837901,"ECCENTRICITY":0.00013865,"INCLINATION":53.2167,"RA_OF_ASC_NODE":92.3912,"ARG_OF_PERICENTER":92.8435,"MEAN_ANOMALY":267.2716,"EPHEMERIS_TYPE":0,"CLASSIFICATION_TYPE":"U","NORAD_CAT_ID":53624,"ELEMENT_SET_NO":999,"REV_AT_EPOCH":17629,"BSTAR":5.0061618e-5,"MEAN_MOTION_DOT":5.09e-6,"MEAN_MOTION_DDOT":0},{"OBJECT_NAME":"STARLINK-4554","OBJECT_ID":"2022-104AQ","EPOCH":"2025-11-01T03:23:26.714688","MEAN_MOTION":15.08845499,"ECCENTRICITY":0.00013433,"INCLINATION":53.2155,"RA_OF_ASC_NODE":90.836,"ARG_OF_PERICENTER":96.0279,"MEAN_ANOMALY":264.0867,"EPHEMERIS_TYPE":0,"CLASSIFICATION_TYPE":"U","NORAD_CAT_ID":53626,"ELEMENT_SET_NO":999,"REV_AT_EPOCH":17635,"BSTAR":9.066434e-6,"MEAN_MOTION_DOT":-1.44e-6,"MEAN_MOTION_DDOT":0}]
