STARLINK-4693           
1 53605U 22104T   25305.15510435  .00001586  00000+0  11776-3 0  9991
2 53605  53.2158 100.9105 0001524  86.1822 273.9345 15.08832677176217
STARLINK-4590           
1 53606U 22104U   25304.85430533 -.00000164  00000+0  77916-5 0  9990
2 53606  53.2182  92.5962 0001408  88.1792 271.9362 15.08834644176180
STARLINK-4591           
1 53607U 22104V   25305.11327215  .00000363  00000+0  40903-4 0  9998
2 53607  53.2166  96.3729 0001323  89.2065 270.9079 15.08835962176275
STARLINK-4647           
1 53608U 22104W   25305.12663177  .00001707  00000+0  12526-3 0  9992
2 53608  53.2171  91.4508 0001393 107.6388 252.4757 15.08848152176221
STARLINK-4660           
1 53609U 22104X   25305.14635367  .00006081  00000+0  39986-3 0  9994
2 53609  53.2149  95.8738 0001333  97.5085 262.6059 15.08837150176285
STARLINK-4610           
1 53610U 22104Y   25305.12022067  .00000152  00000+0  27665-4 0  9996
2 53610  53.2150  91.4132 0001402  88.0776 272.0377 15.08835783176220
STARLINK-4658           
1 53612U 22104AA  25305.11557813 -.00000440  00000+0 -95539-5 0  9997
2 53612  53.2163  91.3836 0001286  89.1191 270.9949 15.08835598176225
STARLINK-4655           
1 53613U 22104AB  25305.12294771  .00000205  00000+0  30976-4 0  9990
2 53613  53.2178  91.4274 0001361  85.6249 274.4899 15.08832803176227
STARLINK-4605           
1 53616U 22104AE  25305.64274311 -.00002900  00000+0 -16431-3 0  9993
2 53616  53.2175  78.8190 0001657  85.9582 274.1599 15.08812996176555
STARLINK-4609           
1 53619U 22104AH  25304.84324611  .00000909  00000+0  75194-4 0  9993
2 53619  53.2163  92.5277 0001335  88.8248 271.2897 15.08839142176188
STARLINK-4615           
1 53620U 22104AJ  25304.82850544 -.00000328  00000+0 -25067-5 0  9994
2 53620  53.2172  92.4362 0001343  90.8379 269.2767 15.08839451176299
STARLINK-4608           
1 53621U 22104AK  25305.10452022  .00000126  00000+0  25999-4 0  9993
2 53621  53.2160  91.3149 0001454  89.1218 270.9941 15.08835508176229
STARLINK-4568           
1 53622U 22104AL  25304.74016066  .00000171  00000+0  28816-4 0  9998
2 53622  53.2155  92.6019 0001375  87.1970 272.9180 15.08838815176286
STARLINK-4573           
1 53623U 22104AM  25304.76595238  .00000120  00000+0  25601-4 0  9997
2 53623  53.2158  92.7560 0001238  91.2080 268.9054 15.08836888176281
STARLINK-4596           
1 53624U 22104AN  25304.82113653  .00000509  00000+0  50062-4 0  9992
2 53624  53.2167  92.3912 0001386  92.8435 267.2716 15.08837901176299
STARLINK-4554           
1 53626U 22104AQ  25305.14128142 -.00000144  00000+0  90664-5 0  9998
2 53626  53.2155  90.8360 0001343  96.0279 264.0867 15.08845499176353
